[
  {
    "OBJECT_NAME": "STARLINK-33761",
    "OBJECT_ID": "25069Y",
    "EPOCH": "2025-11-11T07:37:02.964288",
    "MEAN_MOTION": 15.30205127,
    "ECCENTRICITY": 0.0001548,
    "INCLINATION": 53.1624,
    "RA_OF_ASC_NODE": 332.1297,
    "ARG_OF_PERICENTER": 82.1959,
    "MEAN_ANOMALY": 277.9217,
    "EPHEMERIS_TYPE": 0,
    "CLASSIFICATION_TYPE": "U",
    "NORAD_CAT_ID": 63455,
    "ELEMENT_SET_NO": 999,
    "REV_AT_EPOCH": 3528,
    "BSTAR": 0.0020693,
    "MEAN_MOTION_DOT": 0.00061446,
    "MEAN_MOTION_DDOT": 0.0,
    "TLE_LINE1": "1 63455U 25069Y   25315.31739542  .00061446  00000+0  20693-2 0  9997",
    "TLE_LINE2": "2 63455  53.1624 332.1297 0001548  82.1959 277.9217 15.30205127 35284",
    "COMMENT": "Grouped by shell and plane from TLE"
  },
  {
    "OBJECT_NAME": "STARLINK-33737",
    "OBJECT_ID": "25069Z",
    "EPOCH": "2025-11-11T06:12:06.569568",
    "MEAN_MOTION": 15.30191496,
    "ECCENTRICITY": 0.000103,
    "INCLINATION": 53.1601,
    "RA_OF_ASC_NODE": 332.4623,
    "ARG_OF_PERICENTER": 67.2849,
    "MEAN_ANOMALY": 292.8261,
    "EPHEMERIS_TYPE": 0,
    "CLASSIFICATION_TYPE": "U",
    "NORAD_CAT_ID": 63456,
    "ELEMENT_SET_NO": 999,
    "REV_AT_EPOCH": 3516,
    "BSTAR": 0.00055485,
    "MEAN_MOTION_DOT": 0.00016105,
    "MEAN_MOTION_DDOT": 0.0,
    "TLE_LINE1": "1 63456U 25069Z   25315.25840937  .00016105  00000+0  55485-3 0  9992",
    "TLE_LINE2": "2 63456  53.1601 332.4623 0001030  67.2849 292.8261 15.30191496 35169",
    "COMMENT": "Grouped by shell and plane from TLE"
  },
  {
    "OBJECT_NAME": "STARLINK-33795",
    "OBJECT_ID": "25069AA",
    "EPOCH": "2025-11-11T06:51:37.459872",
    "MEAN_MOTION": 15.3020977,
    "ECCENTRICITY": 0.0001646,
    "INCLINATION": 53.1599,
    "RA_OF_ASC_NODE": 332.6488,
    "ARG_OF_PERICENTER": 87.648,
    "MEAN_ANOMALY": 272.471,
    "EPHEMERIS_TYPE": 0,
    "CLASSIFICATION_TYPE": "U",
    "NORAD_CAT_ID": 63457,
    "ELEMENT_SET_NO": 999,
    "REV_AT_EPOCH": 3516,
    "BSTAR": 0.0005182,
    "MEAN_MOTION_DOT": 0.00015024,
    "MEAN_MOTION_DDOT": 0.0,
    "TLE_LINE1": "1 63457U 25069AA  25315.28585023  .00015024  00000+0  51820-3 0  9996",
    "TLE_LINE2": "2 63457  53.1599 332.6488 0001646  87.6480 272.4710 15.30209770 35165",
    "COMMENT": "Grouped by shell and plane from TLE"
  },
  {
    "OBJECT_NAME": "STARLINK-33756",
    "OBJECT_ID": "25069AB",
    "EPOCH": "2025-11-11T06:56:10.636800",
    "MEAN_MOTION": 15.30213991,
    "ECCENTRICITY": 0.0001088,
    "INCLINATION": 53.1594,
    "RA_OF_ASC_NODE": 332.66,
    "ARG_OF_PERICENTER": 93.156,
    "MEAN_ANOMALY": 266.9565,
    "EPHEMERIS_TYPE": 0,
    "CLASSIFICATION_TYPE": "U",
    "NORAD_CAT_ID": 63458,
    "ELEMENT_SET_NO": 999,
    "REV_AT_EPOCH": 3527,
    "BSTAR": 0.00071257,
    "MEAN_MOTION_DOT": 0.00020813,
    "MEAN_MOTION_DDOT": 0.0,
    "TLE_LINE1": "1 63458U 25069AB  25315.28901200  .00020813  00000+0  71257-3 0  9994",
    "TLE_LINE2": "2 63458  53.1594 332.6600 0001088  93.1560 266.9565 15.30213991 35276",
    "COMMENT": "Grouped by shell and plane from TLE"
  },
  {
    "OBJECT_NAME": "STARLINK-33780",
    "OBJECT_ID": "25069AC",
    "EPOCH": "2025-11-11T06:07:33.045312",
    "MEAN_MOTION": 15.30222544,
    "ECCENTRICITY": 0.0001294,
    "INCLINATION": 53.1608,
    "RA_OF_ASC_NODE": 332.4464,
    "ARG_OF_PERICENTER": 59.789,
    "MEAN_ANOMALY": 300.3239,
    "EPHEMERIS_TYPE": 0,
    "CLASSIFICATION_TYPE": "U",
    "NORAD_CAT_ID": 63459,
    "ELEMENT_SET_NO": 999,
    "REV_AT_EPOCH": 3516,
    "BSTAR": 0.0007917800000000001,
    "MEAN_MOTION_DOT": 0.00023181,
    "MEAN_MOTION_DDOT": 0.0,
    "TLE_LINE1": "1 63459U 25069AC  25315.25524358  .00023181  00000+0  79178-3 0  9998",
    "TLE_LINE2": "2 63459  53.1608 332.4464 0001294  59.7890 300.3239 15.30222544 35165",
    "COMMENT": "Grouped by shell and plane from TLE"
  },
  {
    "OBJECT_NAME": "STARLINK-33828",
    "OBJECT_ID": "25071A",
    "EPOCH": "2025-11-11T07:12:43.582752",
    "MEAN_MOTION": 15.3021131,
    "ECCENTRICITY": 0.0001282,
    "INCLINATION": 53.1614,
    "RA_OF_ASC_NODE": 331.9985,
    "ARG_OF_PERICENTER": 88.247,
    "MEAN_ANOMALY": 271.8678,
    "EPHEMERIS_TYPE": 0,
    "CLASSIFICATION_TYPE": "U",
    "NORAD_CAT_ID": 63493,
    "ELEMENT_SET_NO": 999,
    "REV_AT_EPOCH": 3459,
    "BSTAR": 0.00058132,
    "MEAN_MOTION_DOT": 0.00016903,
    "MEAN_MOTION_DDOT": 0.0,
    "TLE_LINE1": "1 63493U 25071A   25315.30050443  .00016903  00000+0  58132-3 0  9995",
    "TLE_LINE2": "2 63493  53.1614 331.9985 0001282  88.2470 271.8678 15.30211310 34594",
    "COMMENT": "Grouped by shell and plane from TLE"
  },
  {
    "OBJECT_NAME": "STARLINK-33819",
    "OBJECT_ID": "25071B",
    "EPOCH": "2025-11-11T07:17:16.938528",
    "MEAN_MOTION": 15.3022055,
    "ECCENTRICITY": 0.0001187,
    "INCLINATION": 53.1629,
    "RA_OF_ASC_NODE": 332.0056,
    "ARG_OF_PERICENTER": 104.2306,
    "MEAN_ANOMALY": 255.8827,
    "EPHEMERIS_TYPE": 0,
    "CLASSIFICATION_TYPE": "U",
    "NORAD_CAT_ID": 63494,
    "ELEMENT_SET_NO": 999,
    "REV_AT_EPOCH": 3459,
    "BSTAR": 0.0012541,
    "MEAN_MOTION_DOT": 0.00036992,
    "MEAN_MOTION_DDOT": 0.0,
    "TLE_LINE1": "1 63494U 25071B   25315.30366827  .00036992  00000+0  12541-2 0  9995",
    "TLE_LINE2": "2 63494  53.1629 332.0056 0001187 104.2306 255.8827 15.30220550 34597",
    "COMMENT": "Grouped by shell and plane from TLE"
  },
  {
    "OBJECT_NAME": "STARLINK-33837",
    "OBJECT_ID": "25071J",
    "EPOCH": "2025-11-11T06:12:52.421184",
    "MEAN_MOTION": 15.30227129,
    "ECCENTRICITY": 0.000147,
    "INCLINATION": 53.1597,
    "RA_OF_ASC_NODE": 330.3053,
    "ARG_OF_PERICENTER": 83.2953,
    "MEAN_ANOMALY": 276.8215,
    "EPHEMERIS_TYPE": 0,
    "CLASSIFICATION_TYPE": "U",
    "NORAD_CAT_ID": 63501,
    "ELEMENT_SET_NO": 999,
    "REV_AT_EPOCH": 3457,
    "BSTAR": 0.0010207,
    "MEAN_MOTION_DOT": 0.00030018,
    "MEAN_MOTION_DDOT": 0.0,
    "TLE_LINE1": "1 63501U 25071J   25315.25894006  .00030018  00000+0  10207-2 0  9993",
    "TLE_LINE2": "2 63501  53.1597 330.3053 0001470  83.2953 276.8215 15.30227129 34578",
    "COMMENT": "Grouped by shell and plane from TLE"
  },
  {
    "OBJECT_NAME": "STARLINK-33583",
    "OBJECT_ID": "25071L",
    "EPOCH": "2025-11-11T06:48:34.343712",
    "MEAN_MOTION": 15.30209471,
    "ECCENTRICITY": 0.0001243,
    "INCLINATION": 53.1591,
    "RA_OF_ASC_NODE": 332.5879,
    "ARG_OF_PERICENTER": 71.1539,
    "MEAN_ANOMALY": 288.9596,
    "EPHEMERIS_TYPE": 0,
    "CLASSIFICATION_TYPE": "U",
    "NORAD_CAT_ID": 63503,
    "ELEMENT_SET_NO": 999,
    "REV_AT_EPOCH": 3461,
    "BSTAR": 0.00052362,
    "MEAN_MOTION_DOT": 0.00015185,
    "MEAN_MOTION_DDOT": 0.0,
    "TLE_LINE1": "1 63503U 25071L   25315.28373083  .00015185  00000+0  52362-3 0  9992",
    "TLE_LINE2": "2 63503  53.1591 332.5879 0001243  71.1539 288.9596 15.30209471 34619",
    "COMMENT": "Grouped by shell and plane from TLE"
  },
  {
    "OBJECT_NAME": "STARLINK-33811",
    "OBJECT_ID": "25071M",
    "EPOCH": "2025-11-11T06:20:27.479616",
    "MEAN_MOTION": 15.30197192,
    "ECCENTRICITY": 0.000132,
    "INCLINATION": 53.1599,
    "RA_OF_ASC_NODE": 330.3369,
    "ARG_OF_PERICENTER": 78.2147,
    "MEAN_ANOMALY": 281.9002,
    "EPHEMERIS_TYPE": 0,
    "CLASSIFICATION_TYPE": "U",
    "NORAD_CAT_ID": 63504,
    "ELEMENT_SET_NO": 999,
    "REV_AT_EPOCH": 3457,
    "BSTAR": 0.0003033,
    "MEAN_MOTION_DOT": 8.633e-05,
    "MEAN_MOTION_DDOT": 0.0,
    "TLE_LINE1": "1 63504U 25071M   25315.26420694  .00008633  00000+0  30330-3 0  9993",
    "TLE_LINE2": "2 63504  53.1599 330.3369 0001320  78.2147 281.9002 15.30197192 34573",
    "COMMENT": "Grouped by shell and plane from TLE"
  },
  {
    "OBJECT_NAME": "STARLINK-33764",
    "OBJECT_ID": "25071T",
    "EPOCH": "2025-11-11T06:25:00.410304",
    "MEAN_MOTION": 15.30199338,
    "ECCENTRICITY": 0.000136,
    "INCLINATION": 53.1584,
    "RA_OF_ASC_NODE": 330.3191,
    "ARG_OF_PERICENTER": 68.2746,
    "MEAN_ANOMALY": 291.8399,
    "EPHEMERIS_TYPE": 0,
    "CLASSIFICATION_TYPE": "U",
    "NORAD_CAT_ID": 63510,
    "ELEMENT_SET_NO": 999,
    "REV_AT_EPOCH": 3461,
    "BSTAR": 0.00028072000000000004,
    "MEAN_MOTION_DOT": 7.964e-05,
    "MEAN_MOTION_DDOT": 0.0,
    "TLE_LINE1": "1 63510U 25071T   25315.26736586  .00007964  00000+0  28072-3 0  9996",
    "TLE_LINE2": "2 63510  53.1584 330.3191 0001360  68.2746 291.8399 15.30199338 34613",
    "COMMENT": "Grouped by shell and plane from TLE"
  },
  {
    "OBJECT_NAME": "STARLINK-33786",
    "OBJECT_ID": "25071X",
    "EPOCH": "2025-11-11T06:14:22.190784",
    "MEAN_MOTION": 15.30193765,
    "ECCENTRICITY": 0.0001146,
    "INCLINATION": 53.1599,
    "RA_OF_ASC_NODE": 330.2698,
    "ARG_OF_PERICENTER": 84.6958,
    "MEAN_ANOMALY": 275.4173,
    "EPHEMERIS_TYPE": 0,
    "CLASSIFICATION_TYPE": "U",
    "NORAD_CAT_ID": 63514,
    "ELEMENT_SET_NO": 999,
    "REV_AT_EPOCH": 3425,
    "BSTAR": 0.00085914,
    "MEAN_MOTION_DOT": 0.00025167,
    "MEAN_MOTION_DDOT": 0.0,
    "TLE_LINE1": "1 63514U 25071X   25315.25997906  .00025167  00000+0  85914-3 0  9997",
    "TLE_LINE2": "2 63514  53.1599 330.2698 0001146  84.6958 275.4173 15.30193765 34259",
    "COMMENT": "Grouped by shell and plane from TLE"
  },
  {
    "OBJECT_NAME": "STARLINK-33785",
    "OBJECT_ID": "25071Z",
    "EPOCH": "2025-11-11T06:09:48.517920",
    "MEAN_MOTION": 15.30214483,
    "ECCENTRICITY": 0.0001356,
    "INCLINATION": 53.1601,
    "RA_OF_ASC_NODE": 330.2513,
    "ARG_OF_PERICENTER": 93.4195,
    "MEAN_ANOMALY": 266.696,
    "EPHEMERIS_TYPE": 0,
    "CLASSIFICATION_TYPE": "U",
    "NORAD_CAT_ID": 63516,
    "ELEMENT_SET_NO": 999,
    "REV_AT_EPOCH": 3461,
    "BSTAR": 0.00092095,
    "MEAN_MOTION_DOT": 0.00027028,
    "MEAN_MOTION_DDOT": 0.0,
    "TLE_LINE1": "1 63516U 25071Z   25315.25681155  .00027028  00000+0  92095-3 0  9991",
    "TLE_LINE2": "2 63516  53.1601 330.2513 0001356  93.4195 266.6960 15.30214483 34612",
    "COMMENT": "Grouped by shell and plane from TLE"
  }
]